*******************************************************************************
JPL/HORIZONS                1561 Fricke (1941 CG)          2023-Sep-04 11:12:51
Rec #:    1561 (+COV) Soln.date: 2023-Aug-22_05:13:50   # obs: 4089 (1941-2023)
 
IAU76/J2000 helio. ecliptic osc. elements (au, days, deg., period=Julian yrs):
 
  EPOCH=  2457234.5 ! 2015-Jul-31.00 (TDB)         Residual RMS= .25374
   EC= .1260729237085938   QR= 2.794444873943439   TP= 2457583.7793305842
   OM= 230.6856625735351   W=  40.85662779938109   IN= 4.318424847889792
   A= 3.197572142748952    MA= 299.7930769837925   ADIST= 3.600699411554466
   PER= 5.71793            N= .172374709           ANGMOM= .030514937
   DAN= 2.87281            DDN= 3.47844            L= 271.4617095
   B= 2.823446             MOID= 1.78021002        TP= 2016-Jul-14.2793305842
 
Asteroid physical parameters (km, seconds, rotational period in hours):
   GM= n.a.                RAD= 12.676             ROTPER= 15.1533
   H= 11.49                G= .150                 B-V= n.a.
                           ALBEDO= .063            STYP= n.a.

ASTEROID comments: 
1: soln ref.= JPL#52, OCC=0
2: source=ORB
*******************************************************************************


*******************************************************************************
Ephemeris / API_USER Mon Sep  4 11:12:52 2023 Pasadena, USA      / Horizons
*******************************************************************************
Target body name: 1561 Fricke (1941 CG)           {source: JPL#52}
Center body name: Solar System Barycenter (0)     {source: DE441}
Center-site name: BODY CENTER
*******************************************************************************
Start time      : A.D. 2023-Aug-12 00:00:00.0000 TDB
Stop  time      : A.D. 2023-Aug-13 00:00:00.0000 TDB
Step-size       : 2880 minutes
*******************************************************************************
Center geodetic : 0.0, 0.0, 0.0                   {E-lon(deg),Lat(deg),Alt(km)}
Center cylindric: 0.0, 0.0, 0.0                   {E-lon(deg),Dxy(km),Dz(km)}
Center radii    : (undefined)
Small perturbers: Yes                             {source: SB441-N16}
Output units    : KM-S
Calendar mode   : Mixed Julian/Gregorian
Output type     : GEOMETRIC cartesian states
Output format   : 2 (position and velocity)
Reference frame : Ecliptic of J2000.0
*******************************************************************************
Initial IAU76/J2000 heliocentric ecliptic osculating elements (au, days, deg.):
  EPOCH=  2457234.5 ! 2015-Jul-31.00 (TDB)         Residual RMS= .25374        
   EC= .1260729237085938   QR= 2.794444873943439   TP= 2457583.7793305842      
   OM= 230.6856625735351   W=  40.85662779938109   IN= 4.318424847889792       
  Equivalent ICRF heliocentric cartesian coordinates (au, au/d):
   X=-2.888950425613606E+00  Y=-8.086773524523573E-01  Z=-4.858008898695095E-01
  VX= 4.176795127950529E-03 VY=-8.694793442695898E-03 VZ=-3.024947463121507E-03
Asteroid physical parameters (km, seconds, rotational period in hours):        
   GM= n.a.                RAD= 12.676             ROTPER= 15.1533             
   H= 11.49                G= .150                 B-V= n.a.                   
                           ALBEDO= .063            STYP= n.a.                  
*******************************************************************************
JDTDB
   X     Y     Z
   VX    VY    VZ
*******************************************************************************
$$SOE
2460168.500000000 = A.D. 2023-Aug-12 00:00:00.0000 TDB 
 X = 4.684597022925307E+08 Y = 9.641980190139522E+07 Z = 2.281921078968893E+07
 VX=-1.198963153648114E+00 VY= 1.652391741029089E+01 VZ=-8.640765997400113E-01
$$EOE
*******************************************************************************
 
TIME

  Barycentric Dynamical Time ("TDB" or T_eph) output was requested. This
continuous coordinate time is equivalent to the relativistic proper time
of a clock at rest in a reference frame co-moving with the solar system
barycenter but outside the system's gravity well. It is the independent
variable in the solar system relativistic equations of motion.

  TDB runs at a uniform rate of one SI second per second and is independent
of irregularities in Earth's rotation.
 
CALENDAR SYSTEM

  Mixed calendar mode was active such that calendar dates after AD 1582-Oct-15
(if any) are in the modern Gregorian system. Dates prior to 1582-Oct-5 (if any)
are in the Julian calendar system, which is automatically extended for dates
prior to its adoption on 45-Jan-1 BC.  The Julian calendar is useful for
matching historical dates. The Gregorian calendar more accurately corresponds
to the Earth's orbital motion and seasons. A "Gregorian-only" calendar mode is
available if such physical events are the primary interest.

REFERENCE FRAME AND COORDINATES

  Ecliptic at the standard reference epoch

    Reference epoch: J2000.0
    X-Y plane: adopted Earth orbital plane at the reference epoch
               Note: IAU76 obliquity of 84381.448 arcseconds wrt ICRF X-Y plane
    X-axis   : ICRF
    Z-axis   : perpendicular to the X-Y plane in the directional (+ or -) sense
               of Earth's north pole at the reference epoch.

  Symbol meaning:

    JDTDB    Julian Day Number, Barycentric Dynamical Time
      X      X-component of position vector (km)
      Y      Y-component of position vector (km)
      Z      Z-component of position vector (km)
      VX     X-component of velocity vector (km/sec)                           
      VY     Y-component of velocity vector (km/sec)                           
      VZ     Z-component of velocity vector (km/sec)                           

ABERRATIONS AND CORRECTIONS

 Geometric state vectors have NO corrections or aberrations applied.

Computations by ...

    Solar System Dynamics Group, Horizons On-Line Ephemeris System
    4800 Oak Grove Drive, Jet Propulsion Laboratory
    Pasadena, CA  91109   USA

    General site: https://ssd.jpl.nasa.gov/
    Mailing list: https://ssd.jpl.nasa.gov/email_list.html
    System news : https://ssd.jpl.nasa.gov/horizons/news.html
    User Guide  : https://ssd.jpl.nasa.gov/horizons/manual.html
    Connect     : browser        https://ssd.jpl.nasa.gov/horizons/app.html#/x
                  API            https://ssd-api.jpl.nasa.gov/doc/horizons.html
                  command-line   telnet ssd.jpl.nasa.gov 6775
                  e-mail/batch   https://ssd.jpl.nasa.gov/ftp/ssd/hrzn_batch.txt
                  scripts        https://ssd.jpl.nasa.gov/ftp/ssd/SCRIPTS
    Author      : Jon.D.Giorgini@jpl.nasa.gov
*******************************************************************************
